[{"OBJECT_NAME":"FLORIPASAT-1","OBJECT_ID":"2019-093G","EPOCH":"2026-03-09T23:35:55.317696","MEAN_MOTION":15.02721611,"ECCENTRICITY":0.00131238,"INCLINATION":97.7908,"RA_OF_ASC_NODE":162.596,"ARG_OF_PERICENTER":52.6692,"MEAN_ANOMALY":307.5727,"EPHEMERIS_TYPE":0,"CLASSIFICATION_TYPE":"U","NORAD_CAT_ID":44885,"ELEMENT_SET_NO":999,"REV_AT_EPOCH":33774,"BSTAR":0.00066057159,"MEAN_MOTION_DOT":8.782e-5,"MEAN_MOTION_DDOT":0},{"OBJECT_NAME":"STARLINK-32516","OBJECT_ID":"2024-225P","EPOCH":"2026-03-09T16:45:08.871840","MEAN_MOTION":14.98339257,"ECCENTRICITY":0.00034447,"INCLINATION":70.0022,"RA_OF_ASC_NODE":164.5399,"ARG_OF_PERICENTER":273.3746,"MEAN_ANOMALY":86.7019,"EPHEMERIS_TYPE":0,"CLASSIFICATION_TYPE":"U","NORAD_CAT_ID":62176,"ELEMENT_SET_NO":999,"REV_AT_EPOCH":6987,"BSTAR":0.00054834516,"MEAN_MOTION_DOT":6.458e-5,"MEAN_MOTION_DDOT":0}]
